GLOBALSTAR M045         
1 25676U 99019A   24124.22916882 -.00000110  00000+0 -14733-3 0  9999
2 25676  51.9995  33.7094 0001016  97.9500  69.4528 12.27036275143300
GLOBALSTAR M019         
1 25677U 99019B   24123.80977664 -.00000057  00000+0  34475-3 0  9992
2 25677  51.9843 136.3995 0001026 215.0527 316.6990 12.13853995135498
GLOBALSTAR M044         
1 25678U 99019C   24124.22182303 -.00000056  00000+0  38465-3 0  9990
2 25678  51.9997  35.3253 0006274 334.3627 194.0373 11.90231825122484
GLOBALSTAR M042         
1 25679U 99019D   24123.50109291 -.00000071  00000+0  20306-3 0  9998
2 25679  51.9985 130.3080 0002931 171.7803 355.6390 12.22060831135044
GLOBALSTAR M025         
1 25770U 99031A   24123.47727623 -.00000061  00000+0  21449-3 0  9993
2 25770  51.9852  30.7026 0001253 158.7192  11.8915 11.22550549435589
GLOBALSTAR M049         
1 25771U 99031B   24123.49798941  .00000007  00000+0  25064-2 0  9992
2 25771  51.9902  44.7779 0003252  45.0009 315.1051 11.12104224 71730
GLOBALSTAR M047         
1 25772U 99031C   24123.60580334 -.00000064  00000+0  14133-3 0  9991
2 25772  51.9826  80.7277 0016362 278.9583  80.9371 11.31920387 99389
GLOBALSTAR M052         
1 25773U 99031D   24124.48419626 -.00000019  00000+0  15846-2 0  9995
2 25773  51.9828 156.9835 0002913 215.5217 293.9763 11.15050774 90632
